NORAD_CAT_ID,OBJECT_NAME,OBJECT_TYPE,EPOCH,MEAN_MOTION,ECCENTRICITY,INCLINATION,RA_OF_ASC_NODE,ARG_OF_PERICENTER,MEAN_ANOMALY,BSTAR,MEAN_MOTION_DOT,MEAN_MOTION_DDOT,TLE_LINE0,TLE_LINE1,TLE_LINE2,SEMIMAJOR_AXIS,PERIOD,APOGEE,PERIGEE,DECAYED
53850.0,STARLINK-4767,PAYLOAD,2022-10-14 18:00:00,15.73204092,0.0001456,53.2175,131.5516,94.905,114.2123,9.5967e-06,7.27e-06,0.0,0 STARLINK-4767,1 53850U 22114AJ  22287.75001157  .00000727  00000-0  95967-5 0  9995,2 53850  53.2175 131.5516 0001456  94.9050 114.2123 15.73204092  1302,6727.884,91.533,350.728,348.769,0.0
53850.0,STARLINK-4767,PAYLOAD,2022-10-15 14:00:01,15.73213482,0.0001161999999999,53.2143,127.4233,101.9716,149.5325,-0.00012848,-0.00018621,0.0,0 STARLINK-4767,1 53850U 22114AJ  22288.58334491 -.00018621  00000-0 -12848-3 0  9996,2 53850  53.2143 127.4233 0001162 101.9716 149.5325 15.73213482  1307,6727.857,91.532,350.504,348.94,0.0
53850.0,STARLINK-4767,PAYLOAD,2022-10-15 22:00:01,15.73188279,0.0001119,53.2141,125.7758,85.4866,255.0311,-7.428999999999999e-06,-1.661e-05,0.0,0 STARLINK-4767,1 53850U 22114AJ  22288.91668981 -.00001661  00000-0 -74290-5 0  9994,2 53850  53.2141 125.7758 0001119  85.4866 255.0311 15.73188279  4803,6727.929,91.534,350.546,349.041,0.0
53850.0,STARLINK-4767,PAYLOAD,2022-10-16 14:00:01,15.73153817,0.0001404,53.2145,122.4748,96.2921,61.9465,0.0006012,0.00084439,0.0,0 STARLINK-4767,1 53850U 22114AJ  22289.58334491  .00084439  00000-0  60120-3 0  9991,2 53850  53.2145 122.4748 0001404  96.2921  61.9465 15.73153817  1305,6728.026999999999,91.536,350.836,348.94699999999995,0.0
53850.0,STARLINK-4767,PAYLOAD,2022-10-16 22:00:00,15.73194729,0.0001313,53.2154,120.8288,80.8802,166.2674,0.00065653,0.00092519,0.0,0 STARLINK-4767,1 53850U 22114AJ  22289.91667824  .00092519  00000-0  65653-3 0  9991,2 53850  53.2154 120.8288 0001313  80.8802 166.2674 15.73194729  1300,6727.91,91.533,350.659,348.892,0.0
53850.0,STARLINK-4767,PAYLOAD,2022-10-17 06:00:00,15.73225179,0.0001134,53.2152,119.1767,87.0401,249.0208,-0.00013768,-0.00019917,0.0,0 STARLINK-4767,1 53850U 22114AJ  22290.25001157 -.00019917  00000-0 -13768-3 0  9994,2 53850  53.2152 119.1767 0001134  87.0401 249.0208 15.73225179  5015,6727.823,91.532,350.451,348.925,0.0
53850.0,STARLINK-4767,PAYLOAD,2022-10-17 14:00:01,15.73244887,0.0001165999999999,53.2149,117.5269,92.1182,332.9309,-3.318e-05,-5.283e-05,0.0,0 STARLINK-4767,1 53850U 22114AJ  22290.58334491 -.00005283  00000-0 -33180-4 0  9992,2 53850  53.2149 117.5269 0001166  92.1182 332.9309 15.73244887  5064,6727.767,91.531,350.417,348.848,0.0
53850.0,STARLINK-4767,PAYLOAD,2022-10-17 22:00:00,15.73202369,0.0001137999999999,53.2141,115.879,74.6227,79.3834,-5.5805e-05,-8.444e-05,0.0,0 STARLINK-4767,1 53850U 22114AJ  22290.91667824 -.00008444  00000-0 -55805-4 0  9998,2 53850  53.2141 115.8790 0001138  74.6227  79.3834 15.73202369  5121,6727.888000000001,91.533,350.519,348.98800000000006,0.0
53850.0,STARLINK-4767,PAYLOAD,2022-10-18 14:00:01,15.73188002,0.0001338,53.2143,112.5781,85.4978,246.3339,-0.00016651,-0.0002391,0.0,0 STARLINK-4767,1 53850U 22114AJ  22291.58334491 -.00023910  00000-0 -16651-3 0  9993,2 53850  53.2143 112.5781 0001338  85.4978 246.3339 15.73188002  1301,6727.929,91.534,350.695,348.894,0.0
53850.0,STARLINK-4767,PAYLOAD,2022-10-18 22:00:00,15.73202338,0.0001588,53.2176,110.9332,83.7436,337.0525,2.6089e-05,3.043e-05,0.0,0 STARLINK-4767,1 53850U 22114AJ  22291.91667824  .00003043  00000-0  26089-4 0  9999,2 53850  53.2176 110.9332 0001588  83.7436 337.0525 15.73202338  1302,6727.889,91.533,350.82199999999995,348.685,0.0
53850.0,STARLINK-4767,PAYLOAD,2022-10-19 08:00:01,15.73231213,0.0001198,53.2141,108.8665,78.8612,183.0248,5.9932e-05,7.809999999999999e-05,0.0,0 STARLINK-4767,1 53850U 22114AJ  22292.33334491  .00007810  00000-0  59932-4 0  9996,2 53850  53.2141 108.8665 0001198  78.8612 183.0248 15.73231213  5340,6727.806,91.531,350.477,348.865,0.0
53850.0,STARLINK-4767,PAYLOAD,2022-10-19 14:00:01,15.73232775,0.0001208,53.2141,107.6298,76.9703,161.6464,4.9357e-05,6.322e-05,0.0,0 STARLINK-4767,1 53850U 22114AJ  22292.58334491  .00006322  00000-0  49357-4 0  9990,2 53850  53.2141 107.6298 0001208  76.9703 161.6464 15.73232775  1309,6727.802,91.531,350.47900000000016,348.85400000000016,0.0
53850.0,STARLINK-4767,PAYLOAD,2022-10-19 22:00:00,15.73269492,0.0001355,53.2156,105.9837,73.7061,253.8998,-0.0010734,-0.00149069,0.0,0 STARLINK-4767,1 53850U 22114AJ  22292.91667824 -.00149069  00000-0 -10734-2 0  9999,2 53850  53.2156 105.9837 0001355  73.7061 253.8998 15.73269492  1302,6727.696999999999,91.529,350.474,348.65,0.0
53850.0,STARLINK-4767,PAYLOAD,2022-10-20 06:00:00,15.73236937,0.0001183,53.2136,104.3303,72.5473,343.9969,-0.00041657,-0.00058767,0.0,0 STARLINK-4767,1 53850U 22114AJ  22293.25001157 -.00058767  00000-0 -41657-3 0  9991,2 53850  53.2136 104.3303 0001183  72.5473 343.9969 15.73236937  5484,6727.79,91.531,350.451,348.8590000000001,0.0
53850.0,STARLINK-4767,PAYLOAD,2022-10-20 14:00:01,15.7319302,0.0001234,53.2145,102.6811,72.976,72.517,-0.00014971,-0.0002157,0.0,0 STARLINK-4767,1 53850U 22114AJ  22293.58334491 -.00021570  00000-0 -14971-3 0  9998,2 53850  53.2145 102.6811 0001234  72.9760  72.5170 15.73193020  1300,6727.915,91.534,350.61,348.95,0.0
53850.0,STARLINK-4767,PAYLOAD,2022-10-20 22:00:00,15.7314373,0.0001409999999999,53.2145,101.0339,59.5039,174.8831,0.00075551,0.00106507,0.0,0 STARLINK-4767,1 53850U 22114AJ  22293.91667824  .00106507  00000-0  75551-3 0  9997,2 53850  53.2145 101.0339 0001410  59.5039 174.8831 15.73143730  1307,6728.056,91.536,350.869,348.972,0.0
53850.0,STARLINK-4767,PAYLOAD,2022-10-21 06:00:00,15.73211794,0.0001334,53.2155,99.3817,66.8787,256.4459,0.00045206,0.00063335,0.0,0 STARLINK-4767,1 53850U 22114AJ  22294.25001157  .00063335  00000-0  45206-3 0  9991,2 53850  53.2155  99.3817 0001334  66.8787 256.4459 15.73211794  5644,6727.861999999999,91.532,350.624,348.829,0.0
53850.0,STARLINK-4767,PAYLOAD,2022-10-21 14:00:01,15.73280571,0.000145,53.2159,97.7323,67.7748,344.5542,-0.00042204,-0.00059637,0.0,0 STARLINK-4767,1 53850U 22114AJ  22294.58334491 -.00059637  00000-0 -42204-3 0  9994,2 53850  53.2159  97.7323 0001450  67.7748 344.5542 15.73280571  1308,6727.665,91.528,350.506,348.555,0.0
53850.0,STARLINK-4767,PAYLOAD,2022-10-21 22:00:00,15.73243062,0.0001465,53.2147,96.0838,55.3371,85.9815,-0.00053676,-0.00075419,0.0,0 STARLINK-4767,1 53850U 22114AJ  22294.91667824 -.00075419  00000-0 -53676-3 0  9991,2 53850  53.2147  96.0838 0001465  55.3371  85.9815 15.73243062  5755,6727.772,91.531,350.62300000000016,348.652,0.0
53850.0,STARLINK-4767,PAYLOAD,2022-10-22 14:00:01,15.73223507,0.0001234,53.215,92.7831,54.2178,264.935,-0.00011764,-0.00017113,0.0,0 STARLINK-4767,1 53850U 22114AJ  22295.58334491 -.00017113  00000-0 -11764-3 0  9995,2 53850  53.2150  92.7831 0001234  54.2178 264.9350 15.73223507  1304,6727.828,91.532,350.523,348.86300000000006,0.0
53850.0,STARLINK-4767,PAYLOAD,2022-10-22 22:00:00,15.73230389,0.0001604,53.2149,91.1347,49.3943,358.7318,-0.00052986,-0.00074427,0.0,0 STARLINK-4767,1 53850U 22114AJ  22295.91667824 -.00074427  00000-0 -52986-3 0  9993,2 53850  53.2149  91.1347 0001604  49.3943 358.7318 15.73230389  1305,6727.809,91.531,350.75300000000016,348.594,0.0
53850.0,STARLINK-4767,PAYLOAD,2022-10-23 14:00:01,15.73212702,0.0001757,53.2149,87.8345,58.0837,167.8659,0.00028881,0.00040129,0.0,0 STARLINK-4767,1 53850U 22114AJ  22296.58334491  .00040129  00000-0  28881-3 0  9995,2 53850  53.2149  87.8345 0001757  58.0837 167.8659 15.73212702  1309,6727.859,91.532,350.906,348.542,0.0
53850.0,STARLINK-4767,PAYLOAD,2022-10-23 22:00:00,15.7326666,0.0001648,53.2144,86.1859,46.5522,268.347,-0.00075179,-0.00105124,0.0,0 STARLINK-4767,1 53850U 22114AJ  22296.91667824 -.00105124  00000-0 -75179-3 0  9992,2 53850  53.2144  86.1859 0001648  46.5522 268.3470 15.73266660  1308,6727.705,91.529,350.67900000000014,348.461,0.0
53850.0,STARLINK-4767,PAYLOAD,2022-10-24 14:00:01,15.73093294,0.0001593,53.2149,82.8857,49.2181,83.5065,0.0003236,0.00044831,0.0,0 STARLINK-4767,1 53850U 22114AJ  22297.58334491  .00044831  00000-0  32360-3 0  9997,2 53850  53.2149  82.8857 0001593  49.2181  83.5065 15.73093294  1302,6728.199000000001,91.539,351.136,348.99300000000005,0.0
53850.0,STARLINK-4767,PAYLOAD,2022-10-24 22:00:00,15.73112824,0.0001602,53.2149,81.2374,38.0325,183.5006,0.0012519999999999,0.001782,0.0,0 STARLINK-4767,1 53850U 22114AJ  22297.91667824  .00178200  00000-0  12520-2 0  9996,2 53850  53.2149  81.2374 0001602  38.0325 183.5006 15.73112824  1303,6728.144,91.538,351.087,348.931,0.0
53850.0,STARLINK-4767,PAYLOAD,2022-10-25 00:00:00,15.73186358,0.0001575,53.215,80.8245,36.433,297.2984,0.0005003999999999,0.00070156,0.0,0 STARLINK-4767,1 53850U 22114AJ  22298.00001157  .00070156  00000-0  50040-3 0  9999,2 53850  53.2150  80.8245 0001575  36.4330 297.2984 15.73186358  6232,6727.934,91.534,350.8590000000001,348.73900000000015,0.0
53850.0,STARLINK-4767,PAYLOAD,2022-10-25 06:00:00,15.73214015,0.0001365999999999,53.2152,79.5858,36.8991,273.5313,-5.650100000000003e-05,-8.546e-05,0.0,0 STARLINK-4767,1 53850U 22114AJ  22298.25001157 -.00008546  00000-0 -56501-4 0  9991,2 53850  53.2152  79.5858 0001366  36.8991 273.5313 15.73214015  6273,6727.855,91.532,350.639,348.801,0.0
53850.0,STARLINK-4767,PAYLOAD,2022-10-25 14:00:01,15.73221465,0.0001506,53.2152,77.9375,31.9466,7.4398,0.00015402,0.00021069,0.0,0 STARLINK-4767,1 53850U 22114AJ  22298.58334491  .00021069  00000-0  15402-3 0  9994,2 53850  53.2152  77.9375 0001506  31.9466   7.4398 15.73221465  1301,6727.834,91.532,350.712,348.686,0.0
53850.0,STARLINK-4767,PAYLOAD,2022-10-25 22:00:01,15.73265518,0.0001925,53.2147,76.2885,40.3714,88.04899999999998,-0.00015801,-0.00022801,0.0,0 STARLINK-4767,1 53850U 22114AJ  22298.91668981 -.00022801  00000-0 -15801-3 0  9995,2 53850  53.2147  76.2885 0001925  40.3714  88.0490 15.73265518  1303,6727.708000000001,91.529,350.86800000000005,348.278,0.0
